[{"OBJECT_NAME":"STARLINK-34073","OBJECT_ID":"2025-137N","EPOCH":"2026-03-09T22:11:46.305600","MEAN_MOTION":15.30209045,"ECCENTRICITY":0.00019946,"INCLINATION":53.16,"RA_OF_ASC_NODE":333.9492,"ARG_OF_PERICENTER":51.2678,"MEAN_ANOMALY":308.8501,"EPHEMERIS_TYPE":0,"CLASSIFICATION_TYPE":"U","NORAD_CAT_ID":64606,"ELEMENT_SET_NO":999,"REV_AT_EPOCH":4065,"BSTAR":0.00093034824,"MEAN_MOTION_DOT":0.00027304,"MEAN_MOTION_DDOT":0},{"OBJECT_NAME":"CZ-6A DEB","OBJECT_ID":"2022-151SD","EPOCH":"2026-03-09T21:25:15.700512","MEAN_MOTION":15.24469357,"ECCENTRICITY":0.00248717,"INCLINATION":98.6538,"RA_OF_ASC_NODE":157.5128,"ARG_OF_PERICENTER":174.047,"MEAN_ANOMALY":186.1065,"EPHEMERIS_TYPE":0,"CLASSIFICATION_TYPE":"U","NORAD_CAT_ID":54940,"ELEMENT_SET_NO":999,"REV_AT_EPOCH":17680,"BSTAR":0.0087519903,"MEAN_MOTION_DOT":0.00223015,"MEAN_MOTION_DDOT":0}]
